NORAD_CAT_ID,OBJECT_NAME,OBJECT_TYPE,EPOCH,MEAN_MOTION,ECCENTRICITY,INCLINATION,RA_OF_ASC_NODE,ARG_OF_PERICENTER,MEAN_ANOMALY,BSTAR,MEAN_MOTION_DOT,MEAN_MOTION_DDOT,TLE_LINE0,TLE_LINE1,TLE_LINE2,SEMIMAJOR_AXIS,PERIOD,APOGEE,PERIGEE,DECAYED
53594.0,STARLINK-4681,PAYLOAD,2024-05-07 20:47:08,15.08834836,0.0001958,53.2207,15.5391,85.3899,274.7317,-1.8922e-05,-5.89e-06,0.0,0 STARLINK-4681,1 53594U 22104G   24128.86606591 -.00000589  00000-0 -18922-4 0  9993,2 53594  53.2207  15.5391 0001958  85.3899 274.7317 15.08834836 93656,6917.896,95.438,541.116,538.407,0.0
53594.0,STARLINK-4681,PAYLOAD,2024-05-07 22:22:31,15.08835388,0.000182,53.2203,15.2432,84.4547,275.6653,-7.5175e-05,-1.484e-05,0.0,0 STARLINK-4681,1 53594U 22104G   24128.93230600 -.00001484  00000-0 -75175-4 0  9993,2 53594  53.2203  15.2432 0001820  84.4547 275.6653 15.08835388 94829,6917.894,95.438,541.019,538.5,0.0
53594.0,STARLINK-4681,PAYLOAD,2024-05-08 01:33:17,15.08845293,0.0001609,53.219,14.6462,88.1063,272.0113,3.4025e-05,2.54e-06,0.0,0 STARLINK-4681,1 53594U 22104G   24129.06478171  .00000254  00000-0  34025-4 0  9996,2 53594  53.2190  14.6462 0001609  88.1063 272.0113 15.08845293 93680,6917.864,95.437,540.842,538.616,0.0
53594.0,STARLINK-4681,PAYLOAD,2024-05-08 09:30:13,15.08840553,0.0001277,53.2174,13.1601,90.5967,269.5171,0.00011498,1.543e-05,0.0,0 STARLINK-4681,1 53594U 22104G   24129.39598410  .00001543  00000-0  11498-3 0  9991,2 53594  53.2174  13.1601 0001277  90.5967 269.5171 15.08840553 94895,6917.879,95.438,540.627,538.86,0.0
53594.0,STARLINK-4681,PAYLOAD,2024-05-08 20:37:55,15.08841881,0.0001238,53.217,11.0793,90.4914,269.622,0.0002402,3.537e-05,0.0,0 STARLINK-4681,1 53594U 22104G   24129.85966513  .00003537  00000-0  24020-3 0  9995,2 53594  53.2170  11.0793 0001238  90.4914 269.6220 15.08841881 93809,6917.875,95.437,540.596,538.883,0.0
53594.0,STARLINK-4681,PAYLOAD,2024-05-08 22:13:18,15.08844055,0.0001291,53.2156,10.7806,89.4307,270.6833,0.00027335,4.066e-05,0.0,0 STARLINK-4681,1 53594U 22104G   24129.92590408  .00004066  00000-0  27335-3 0  9999,2 53594  53.2156  10.7806 0001291  89.4307 270.6833 15.08844055 94974,6917.868,95.437,540.626,538.84,0.0
53594.0,STARLINK-4681,PAYLOAD,2024-05-09 01:24:04,15.08855471,0.0001365,53.2172,10.1855,94.8611,265.2537,0.0004433,6.777e-05,0.0,0 STARLINK-4681,1 53594U 22104G   24130.05838012  .00006777  00000-0  44330-3 0  9996,2 53594  53.2172  10.1855 0001365  94.8611 265.2537 15.08855471 93839,6917.833,95.437,540.642,538.754,0.0
53594.0,STARLINK-4681,PAYLOAD,2024-05-09 09:21:00,15.08844808,0.0001397,53.2166,8.6989,89.2623,270.853,0.0003005,4.498e-05,0.0,0 STARLINK-4681,1 53594U 22104G   24130.38958461  .00004498  00000-0  30050-3 0  9995,2 53594  53.2166   8.6989 0001397  89.2623 270.8530 15.08844808 93880,6917.866,95.437,540.697,538.764,0.0
53594.0,STARLINK-4681,PAYLOAD,2024-05-09 22:04:05,15.08852423,0.0001531,53.2165,6.3196,91.3199,268.7969,0.00041748,6.365e-05,0.0,0 STARLINK-4681,1 53594U 22104G   24130.91950264  .00006365  00000-0  41748-3 0  9998,2 53594  53.2165   6.3196 0001531  91.3199 268.7969 15.08852423 95129,6917.842,95.437,540.767,538.648,0.0
53594.0,STARLINK-4681,PAYLOAD,2024-05-10 09:11:46,15.08853084,0.0001588,53.2165,4.2412,78.0493,282.0677,0.00039497,6.006e-05,0.0,0 STARLINK-4681,1 53594U 22104G   24131.38318172  .00006006  00000-0  39497-3 0  9996,2 53594  53.2165   4.2412 0001588  78.0493 282.0677 15.08853084 95194,6917.84,95.437,540.804,538.607,0.0
53594.0,STARLINK-4681,PAYLOAD,2024-05-10 20:19:28,15.08852964,0.0001685,53.2192,2.1597,79.9255,280.1927,0.00028969,4.327e-05,0.0,0 STARLINK-4681,1 53594U 22104G   24131.84686049  .00004327  00000-0  28969-3 0  9994,2 53594  53.2192   2.1597 0001685  79.9255 280.1927 15.08852964 94102,6917.841,95.437,540.871,538.54,0.0
53594.0,STARLINK-4681,PAYLOAD,2024-05-10 21:54:51,15.08857522,0.0001618,53.2188,1.8617,87.6589,272.4589,0.00027849,4.149e-05,0.0,0 STARLINK-4681,1 53594U 22104G   24131.91309699  .00004149  00000-0  27849-3 0  9993,2 53594  53.2188   1.8617 0001618  87.6589 272.4589 15.08857522 95270,6917.827,95.436,540.811,538.573,0.0
53594.0,STARLINK-4681,PAYLOAD,2024-05-11 21:45:37,15.08818159,0.0001665,53.2178,357.4018,82.0375,278.0806,-0.0011346,-0.00018289,0.0,0 STARLINK-4681,1 53594U 22104G   24132.90668463 -.00018289  00000-0 -11346-2 0  9996,2 53594  53.2178 357.4018 0001665  82.0375 278.0806 15.08818159 94263,6917.947,95.439,540.964,538.66,0.0
53594.0,STARLINK-4681,PAYLOAD,2024-05-12 00:56:24,15.08816107,0.0001567,53.2185,356.8052,91.659,268.4581,-0.0010844,-0.00017493,0.0,0 STARLINK-4681,1 53594U 22104G   24133.03916776 -.00017493  00000-0 -10844-2 0  9992,2 53594  53.2185 356.8052 0001567  91.6590 268.4581 15.08816107 95443,6917.953,95.439,540.902,538.734,0.0
53594.0,STARLINK-4681,PAYLOAD,2024-05-12 20:01:04,15.08763929,0.0001532,53.2182,353.2377,95.5466,264.5701,-0.0013647,-0.00021896,0.0,0 STARLINK-4681,1 53594U 22104G   24133.83407967 -.00021896  00000-0 -13647-2 0  9993,2 53594  53.2182 353.2377 0001532  95.5466 264.5701 15.08763929 94407,6918.113,95.442,541.038,538.918,0.0
53594.0,STARLINK-4681,PAYLOAD,2024-05-12 21:36:28,15.08762394,0.0001442,53.218,352.9349,85.3047,274.811,-0.0012694,-0.00020391,0.0,0 STARLINK-4681,1 53594U 22104G   24133.90032484 -.00020391  00000-0 -12694-2 0  9999,2 53594  53.2180 352.9349 0001442  85.3047 274.8110 15.08762394 95574,6918.118,95.442,540.98,538.985,0.0
53594.0,STARLINK-4681,PAYLOAD,2024-05-13 07:08:48,15.08775247,0.0001336,53.2179,351.1548,113.5809,246.5324,0.00029105,4.339e-05,0.0,0 STARLINK-4681,1 53594U 22104G   24134.29777975  .00004339  00000-0  29105-3 0  9991,2 53594  53.2179 351.1548 0001336 113.5809 246.5324 15.08775247 94478,6918.078,95.442,540.868,539.019,0.0
53594.0,STARLINK-4681,PAYLOAD,2024-05-13 15:05:44,15.08796905,6e-05,53.2177,349.6672,184.4968,175.6019,0.0010411,0.00016301,0.0,0 STARLINK-4681,1 53594U 22104G   24134.62898333  .00016301  00000-0  10411-2 0  9991,2 53594  53.2177 349.6672 0000600 184.4968 175.6019 15.08796905 95683,6918.012,95.44,540.292,539.462,0.0
53594.0,STARLINK-4681,PAYLOAD,2024-05-13 21:27:16,15.08832164,0.0001696,53.2176,348.4792,97.6399,262.4786,0.0012423,0.00019534,0.0,0 STARLINK-4681,1 53594U 22104G   24134.89393861  .00019534  00000-0  12423-2 0  9992,2 53594  53.2176 348.4792 0001696  97.6399 262.4786 15.08832164 95720,6917.904,95.438,540.943,538.596,0.0
53594.0,STARLINK-4681,PAYLOAD,2024-05-13 23:02:39,15.08832093,0.0001713,53.2182,348.1834,105.6044,254.5138,0.0012569,0.00019768,0.0,0 STARLINK-4681,1 53594U 22104G   24134.96017998  .00019768  00000-0  12569-2 0  9994,2 53594  53.2182 348.1834 0001713 105.6044 254.5138 15.08832093 94574,6917.905,95.438,540.955,538.585,0.0
53594.0,STARLINK-4681,PAYLOAD,2024-05-14 06:59:34,15.08844376,0.0001671,53.2179,346.6961,105.261,254.8567,0.001212,0.00019056,0.0,0 STARLINK-4681,1 53594U 22104G   24135.29137725  .00019056  00000-0  12120-2 0  9995,2 53594  53.2179 346.6961 0001671 105.2610 254.8567 15.08844376 95782,6917.867,95.437,540.888,538.576,0.0
53594.0,STARLINK-4681,PAYLOAD,2024-05-14 21:18:01,15.0887594,0.0001464,53.2174,344.0189,108.6399,251.4752,0.0011446,0.00017993,0.0,0 STARLINK-4681,1 53594U 22104G   24135.88751808  .00017993  00000-0  11446-2 0  9992,2 53594  53.2174 344.0189 0001464 108.6399 251.4752 15.08875940 94714,6917.771,95.435,540.648,538.623,0.0
53594.0,STARLINK-4681,PAYLOAD,2024-05-14 22:53:24,15.08890303,0.0001511,53.2167,343.7218,111.9477,248.1676,0.001093,0.00017174,0.0,0 STARLINK-4681,1 53594U 22104G   24135.95375180  .00017174  00000-0  10930-2 0  9993,2 53594  53.2167 343.7218 0001511 111.9477 248.1676 15.08890303 94721,6917.727,95.434,540.637,538.546,0.0
53594.0,STARLINK-4681,PAYLOAD,2024-05-15 21:08:47,15.08861331,0.0001207,53.2158,339.5571,133.1263,226.983,0.00032436,4.881e-05,0.0,0 STARLINK-4681,1 53594U 22104G   24136.88110290  .00004881  00000-0  32436-3 0  9992,2 53594  53.2158 339.5571 0001207 133.1263 226.9830 15.08861331 94867,6917.815,95.436,540.515,538.845,0.0
53594.0,STARLINK-4681,PAYLOAD,2024-05-15 22:44:10,15.08859526,0.0001071,53.2162,339.2592,117.6895,242.4206,0.00038902,5.912e-05,0.0,0 STARLINK-4681,1 53594U 22104G   24136.94734368  .00005912  00000-0  38902-3 0  9997,2 53594  53.2162 339.2592 0001071 117.6895 242.4206 15.08859526 96033,6917.821,95.436,540.427,538.945,0.0
53594.0,STARLINK-4681,PAYLOAD,2024-05-16 13:02:39,15.0884369,0.0001419,53.218,336.5845,76.0207,284.0943,0.00033541,5.055e-05,0.0,0 STARLINK-4681,1 53594U 22104G   24137.54350957  .00005055  00000-0  33541-3 0  9994,2 53594  53.2180 336.5845 0001419  76.0207 284.0943 15.08843690 94960,6917.869,95.437,540.716,538.752,0.0
53594.0,STARLINK-4681,PAYLOAD,2024-05-16 19:24:10,15.08858856,0.0001371,53.2162,335.3969,82.5943,277.5205,0.00034429,5.198e-05,0.0,0 STARLINK-4681,1 53594U 22104G   24137.80845933  .00005198  00000-0  34429-3 0  9990,2 53594  53.2162 335.3969 0001371  82.5943 277.5205 15.08858856 95004,6917.823,95.436,540.636,538.739,0.0
53594.0,STARLINK-4681,PAYLOAD,2024-05-17 12:53:26,15.08835806,7.65e-05,53.2181,332.1251,31.4495,328.6543,0.00011692,1.573e-05,0.0,0 STARLINK-4681,1 53594U 22104G   24138.53711233  .00001573  00000-0  11692-3 0  9996,2 53594  53.2181 332.1251 0000765  31.4495 328.6543 15.08835806 95110,6917.893,95.438,540.287,539.229,0.0
53594.0,STARLINK-4681,PAYLOAD,2024-05-17 19:14:59,15.08835211,0.0002531,53.2169,330.9331,98.5055,261.6224,7.4456e-05,8.97e-06,0.0,0 STARLINK-4681,1 53594U 22104G   24138.80207306  .00000897  00000-0  74456-4 0  9993,2 53594  53.2169 330.9331 0002531  98.5055 261.6224 15.08835211 96315,6917.895,95.438,541.511,538.009,0.0
53594.0,STARLINK-4681,PAYLOAD,2024-05-18 06:22:41,15.08836964,0.0001997,53.2193,328.8525,95.8059,264.316,0.00026721,3.967e-05,0.0,0 STARLINK-4681,1 53594U 22104G   24139.26575616  .00003967  00000-0  26721-3 0  9998,2 53594  53.2193 328.8525 0001997  95.8059 264.3160 15.08836964 96384,6917.89,95.438,541.136,538.373,0.0
